{
  "type": "FeatureCollection",
  "features": [
    {
      "type": "Feature",
      "geometry": {
        "type": "Polygon",
        "coordinates": [
          [
            [
              -120.0,
              38.0
            ],
            [
              -121.0,
              38.0
            ],
            [
              -121.0,
              39.0
            ],
            [
              -120.0,
              39.0
            ],
            [
              -120.0,
              38.0
            ]
          ]
        ]
      },
      "properties": {}
    },
    {
      "type": "Feature",
      "geometry": {
        "type": "LineString",
        "coordinates": [
          [
            -120.5,
            38.5
          ],
          [
            -120.3,
            38.5
          ]
        ]
      },
      "properties": {
        "speed": 8,
        "direction": 270,
        "label": "8 m/s"
      }
    },
    {
      "type": "Feature",
      "geometry": {
        "type": "Point",
        "coordinates": [
          -120.5,
          38.5
        ]
      },
      "properties": {
        "label": "8 m/s, 270\u00b0"
      }
    },
    {
      "type": "Feature",
      "geometry": {
        "type": "Polygon",
        "coordinates": [
          [
            [
              -122.24999999999997,
              39.000000000000014
            ],
            [
              -122.24518472667219,
              39.03920685613184
            ],
            [
              -122.23078528040318,
              39.07803612880647
            ],
            [
              -122.20694033573218,
              39.1161138709018
            ],
            [
              -122.17387953251128,
              39.153073372946054
            ],
            [
              -122.13192126434834,
              39.18855869473041
            ],
            [
              -122.08146961230253,
              39.22222809320785
            ],
            [
              -122.02301045336273,
              39.253757313665474
            ],
            [
              -121.95710678118652,
              39.28284271247463
            ],
            [
              -121.88439328416362,
              39.30920418134511
            ],
            [
              -121.80557023301961,
              39.33258784492103
            ],
            [
              -121.721396736826,
              39.352768505739355
            ],
            [
              -121.63268343236504,
              39.36955181300453
            ],
            [
              -121.54028467725445,
              39.3827761342929
            ],
            [
              -121.44509032201606,
              39.39231411216131
            ],
            [
              -121.34801714032952,
              39.39807389066889
            ],
            [
              -121.24999999999997,
              39.40000000000001
            ],
            [
              -118.74999999999997,
              39.40000000000001
            ],
            [
              -118.65198285967043,
              39.39807389066889
            ],
            [
              -118.55490967798389,
              39.39231411216131
            ],
            [
              -118.4597153227455,
              39.3827761342929
            ],
            [
              -118.3673165676349,
              39.36955181300453
            ],
            [
              -118.27860326317395,
              39.352768505739355
            ],
            [
              -118.19442976698033,
              39.33258784492103
            ],
            [
              -118.11560671583632,
              39.30920418134511
            ],
            [
              -118.04289321881342,
              39.28284271247463
            ],
            [
              -117.97698954663721,
              39.253757313665474
            ],
            [
              -117.91853038769742,
              39.22222809320785
            ],
            [
              -117.86807873565161,
              39.18855869473041
            ],
            [
              -117.82612046748866,
              39.153073372946054
            ],
            [
              -117.79305966426776,
              39.1161138709018
            ],
            [
              -117.76921471959676,
              39.07803612880647
            ],
            [
              -117.75481527332775,
              39.03920685613184
            ],
            [
              -117.74999999999997,
              39.000000000000014
            ],
            [
              -117.74999999999997,
              38.000000000000014
            ],
            [
              -117.75481527332775,
              37.96079314386819
            ],
            [
              -117.76921471959676,
              37.92196387119356
            ],
            [
              -117.79305966426776,
              37.88388612909823
            ],
            [
              -117.82612046748866,
              37.846926627053975
            ],
            [
              -117.86807873565161,
              37.81144130526962
            ],
            [
              -117.91853038769742,
              37.777771906792175
            ],
            [
              -117.97698954663721,
              37.746242686334554
            ],
            [
              -118.04289321881342,
              37.717157287525396
            ],
            [
              -118.11560671583632,
              37.69079581865492
            ],
            [
              -118.19442976698033,
              37.667412155079
            ],
            [
              -118.27860326317395,
              37.64723149426067
            ],
            [
              -118.3673165676349,
              37.6304481869955
            ],
            [
              -118.4597153227455,
              37.61722386570713
            ],
            [
              -118.55490967798389,
              37.60768588783872
            ],
            [
              -118.65198285967043,
              37.60192610933114
            ],
            [
              -118.74999999999997,
              37.600000000000016
            ],
            [
              -121.24999999999997,
              37.600000000000016
            ],
            [
              -121.34801714032952,
              37.60192610933114
            ],
            [
              -121.44509032201606,
              37.60768588783872
            ],
            [
              -121.54028467725445,
              37.61722386570713
            ],
            [
              -121.63268343236504,
              37.6304481869955
            ],
            [
              -121.721396736826,
              37.64723149426067
            ],
            [
              -121.80557023301961,
              37.667412155079
            ],
            [
              -121.88439328416362,
              37.69079581865492
            ],
            [
              -121.95710678118652,
              37.717157287525396
            ],
            [
              -122.02301045336273,
              37.746242686334554
            ],
            [
              -122.08146961230253,
              37.777771906792175
            ],
            [
              -122.13192126434834,
              37.81144130526962
            ],
            [
              -122.17387953251128,
              37.846926627053975
            ],
            [
              -122.20694033573218,
              37.88388612909823
            ],
            [
              -122.23078528040318,
              37.92196387119356
            ],
            [
              -122.24518472667219,
              37.96079314386819
            ],
            [
              -122.24999999999997,
              38.000000000000014
            ],
            [
              -122.24999999999997,
              39.000000000000014
            ]
          ]
        ]
      },
      "properties": {
        "buffer_distance": 0.4,
        "wind_speed": 8,
        "wind_direction": 270,
        "scale_x": 2.5,
        "scale_y": 1.0,
        "shift_distance": 0.5
      }
    }
  ]
}