{
  "type": "Feature",
  "geometry": {
    "type": "Polygon",
    "coordinates": [
      [
        [
          -119.92,
          38.0
        ],
        [
          -119.92038522186623,
          37.99215862877364
        ],
        [
          -119.92153717756774,
          37.98439277423871
        ],
        [
          -119.92344477314143,
          37.976777225819646
        ],
        [
          -119.9260896373991,
          37.96938532541079
        ],
        [
          -119.92944629885213,
          37.96228826105392
        ],
        [
          -119.93348243101579,
          37.95555438135843
        ],
        [
          -119.93815916373099,
          37.94924853726691
        ],
        [
          -119.94343145750507,
          37.94343145750508
        ],
        [
          -119.94924853726691,
          37.93815916373098
        ],
        [
          -119.95555438135843,
          37.9334824310158
        ],
        [
          -119.96228826105391,
          37.929446298852135
        ],
        [
          -119.9693853254108,
          37.926089637399095
        ],
        [
          -119.97677722581965,
          37.923444773141426
        ],
        [
          -119.98439277423871,
          37.92153717756774
        ],
        [
          -119.99215862877364,
          37.920385221866226
        ],
        [
          -120.0,
          37.92
        ],
        [
          -120.1,
          37.92
        ],
        [
          -120.10784137122636,
          37.920385221866226
        ],
        [
          -120.11560722576128,
          37.92153717756774
        ],
        [
          -120.12322277418035,
          37.923444773141426
        ],
        [
          -120.1306146745892,
          37.926089637399095
        ],
        [
          -120.13771173894608,
          37.929446298852135
        ],
        [
          -120.14444561864157,
          37.9334824310158
        ],
        [
          -120.15075146273308,
          37.93815916373098
        ],
        [
          -120.15656854249492,
          37.94343145750508
        ],
        [
          -120.16184083626901,
          37.94924853726691
        ],
        [
          -120.1665175689842,
          37.95555438135843
        ],
        [
          -120.17055370114787,
          37.96228826105392
        ],
        [
          -120.17391036260089,
          37.96938532541079
        ],
        [
          -120.17655522685857,
          37.976777225819646
        ],
        [
          -120.17846282243225,
          37.98439277423871
        ],
        [
          -120.17961477813377,
          37.99215862877364
        ],
        [
          -120.17999999999999,
          38.0
        ],
        [
          -120.17999999999999,
          38.1
        ],
        [
          -120.17961477813377,
          38.107841371226364
        ],
        [
          -120.17846282243225,
          38.115607225761295
        ],
        [
          -120.17655522685857,
          38.123222774180356
        ],
        [
          -120.17391036260089,
          38.13061467458921
        ],
        [
          -120.17055370114787,
          38.13771173894608
        ],
        [
          -120.1665175689842,
          38.14444561864157
        ],
        [
          -120.16184083626901,
          38.15075146273309
        ],
        [
          -120.15656854249492,
          38.156568542494924
        ],
        [
          -120.15075146273308,
          38.16184083626902
        ],
        [
          -120.14444561864157,
          38.166517568984204
        ],
        [
          -120.13771173894608,
          38.17055370114787
        ],
        [
          -120.1306146745892,
          38.17391036260091
        ],
        [
          -120.12322277418035,
          38.176555226858575
        ],
        [
          -120.11560722576128,
          38.17846282243226
        ],
        [
          -120.10784137122636,
          38.179614778133775
        ],
        [
          -120.1,
          38.18
        ],
        [
          -120.0,
          38.18
        ],
        [
          -119.99215862877364,
          38.179614778133775
        ],
        [
          -119.98439277423871,
          38.17846282243226
        ],
        [
          -119.97677722581965,
          38.176555226858575
        ],
        [
          -119.9693853254108,
          38.17391036260091
        ],
        [
          -119.96228826105391,
          38.17055370114787
        ],
        [
          -119.95555438135843,
          38.166517568984204
        ],
        [
          -119.94924853726691,
          38.16184083626902
        ],
        [
          -119.94343145750507,
          38.156568542494924
        ],
        [
          -119.93815916373099,
          38.15075146273309
        ],
        [
          -119.93348243101579,
          38.14444561864157
        ],
        [
          -119.92944629885213,
          38.13771173894608
        ],
        [
          -119.9260896373991,
          38.13061467458921
        ],
        [
          -119.92344477314143,
          38.123222774180356
        ],
        [
          -119.92153717756774,
          38.115607225761295
        ],
        [
          -119.92038522186623,
          38.107841371226364
        ],
        [
          -119.92,
          38.1
        ],
        [
          -119.92,
          38.0
        ]
      ]
    ]
  },
  "properties": {
    "buffer_distance": 0.08,
    "wind_speed": 8
  }
}